FLOCK 4S-9              
1 47478U 21006BT  22293.14447465  .00004838  00000+0  23920-3 0  9993
2 47478  97.4255 349.3904 0006420 210.9951 149.0905 15.18281758 96150
FLOCK 4S-32             
1 47479U 21006BU  22293.16278209  .00018770  00000+0  83895-3 0  9991
2 47479  97.4247 349.8316 0005435 204.8644 155.2331 15.21361243 96187
FLOCK 4S-39             
1 47490U 21006CF  22292.38126089  .00009705  00000+0  47322-3 0  9998
2 47490  97.4345 349.6317 0008771 199.7016 160.3881 15.18490683 96059
FLOCK 4S-4              
1 47491U 21006CG  22292.37691863  .00015610  00000+0  75724-3 0  9994
2 47491  97.4223 348.6629 0008668 197.2684 162.8257 15.18551539 96051
FLOCK 4S-17             
1 47492U 21006CH  22293.16604953  .00012004  00000+0  58594-3 0  9997
2 47492  97.4391 350.4761 0008439 197.2463 162.8819 15.18399297 96175
FLOCK 4S-3              
1 47494U 21006CK  22293.15781387  .00005307  00000+0  27929-3 0  9991
2 47494  97.4238 348.9383 0009539 196.2564 163.8364 15.16018582 96137
FLOCK 4S-27             
1 47495U 21006CL  22292.10726001  .00017080  00000+0  83102-3 0  9994
2 47495  97.4231 348.4729 0009196 199.9501 160.1375 15.18423474 96011
FLOCK 4S-18             
1 47496U 21006CM  22293.16028803  .00011138  00000+0  54262-3 0  9990
2 47496  97.4342 350.3698 0008971 196.4653 163.6292 15.18480656 96170
FLOCK 4S-26             
1 47497U 21006CN  22293.15436161  .00015484  00000+0  67015-3 0  9998
2 47497  97.4219 350.4181 0007974 187.6797 172.4319 15.22488073 96236
FLOCK 4S-2              
1 47498U 21006CP  22292.75842272  .00019828  00000+0  96349-3 0  9996
2 47498  97.4244 349.1834 0008985 194.5426 165.5551 15.18438697 96114
FLOCK 4S-40             
1 47499U 21006CQ  22293.42972982  .00009002  00000+0  44101-3 0  9996
2 47499  97.4346 350.6140 0009585 196.1067 163.9863 15.18343090 96212
FLOCK 4S-19             
1 47500U 21006CR  22292.16031946  .00005943  00000+0  29319-3 0  9999
2 47500  97.4337 349.3927 0009535 197.5626 162.5280 15.18246719 96021
FLOCK 4S-28             
1 47514U 21006DE  22293.10675280  .00008102  00000+0  39526-3 0  9995
2 47514  97.4221 349.2390 0006767 204.3321 155.7595 15.18541710 97117
FLOCK 4S-5              
1 47515U 21006DF  22293.10491526  .00015689  00000+0  76130-3 0  9995
2 47515  97.4236 349.1874 0007008 208.4609 151.6244 15.18551824 96159
FLOCK 4S-16             
1 47516U 21006DG  22293.11646885  .00016072  00000+0  78054-3 0  9991
2 47516  97.4341 350.1618 0006979 204.3074 155.7832 15.18516877 97116
FLOCK 4S-6              
1 47518U 21006DJ  22293.11812446  .00015426  00000+0  75209-3 0  9992
2 47518  97.4233 349.2728 0006830 209.3378 150.7473 15.18391966 97124
FLOCK 4S-29             
1 47520U 21006DL  22292.91419209  .00007825  00000+0  38180-3 0  9993
2 47520  97.4237 349.1369 0006493 206.4209 153.6695 15.18547359 96123
FLOCK 4S-15             
1 47521U 21006DM  22292.56993202  .00006899  00000+0  36238-3 0  9997
2 47521  97.4355 349.1948 0007177 213.0262 147.0524 15.15995652 97018
FLOCK 4S-37             
1 47522U 21006DN  22293.12190735  .00015070  00000+0  73416-3 0  9991
2 47522  97.4327 350.0405 0006455 206.9798 153.1102 15.18426158 97125
FLOCK 4S-10             
1 47523U 21006DP  22293.15960290  .00015477  00000+0  75284-3 0  9992
2 47523  97.4268 349.4516 0006406 211.7999 148.2849 15.18473168 96156
FLOCK 4S-7              
1 47527U 21006DT  22293.12521120  .00011861  00000+0  58076-3 0  9991
2 47527  97.4232 349.2680 0006524 207.7807 152.3079 15.18306334 97113
FLOCK 4S-14             
1 47528U 21006DU  22293.13114053  .00013961  00000+0  68204-3 0  9993
2 47528  97.4330 350.0523 0006566 207.3160 152.7730 15.18344639 97111
FLOCK 4S-36             
1 47530U 21006DW  22293.13206755  .00005182  00000+0  25584-3 0  9997
2 47530  97.4320 349.9715 0006329 205.5820 154.5102 15.18297356 97119
FLOCK 4S-24             
1 47539U 21006DZ  22293.39920576  .00020356  00000+0  99174-3 0  9994
2 47539  97.4266 350.0914 0009959 191.7047 168.3957 15.18333209 96219
FLOCK 4S-20             
1 47540U 21006EA  22293.13525306  .00012911  00000+0  63203-3 0  9992
2 47540  97.4326 350.2878 0009162 193.1339 166.9658 15.18274389 95242
FLOCK 4S-25             
1 47542U 21006EC  22293.47094944  .00005548  00000+0  27359-3 0  9990
2 47542  97.4248 349.9783 0009642 193.9677 166.1291 15.18290582 95296
FLOCK 4S-1              
1 47543U 21006ED  22293.14070315  .00014135  00000+0  69186-3 0  9997
2 47543  97.4249 349.6460 0009083 190.1241 169.9812 15.18258096 95241
FLOCK 4S-30             
1 47544U 21006EE  22292.39686953  .00016701  00000+0  81469-3 0  9994
2 47544  97.4244 348.6574 0006220 206.7934 153.2979 15.18358543 97009
FLOCK 4S-23             
1 47545U 21006EF  22293.11759158  .00009029  00000+0  44082-3 0  9999
2 47545  97.4281 349.9455 0009790 195.2002 164.8939 15.18459802 97145
FLOCK 4S-42             
1 47612U 21006EQ  22293.11233804  .00002281  00000+0  11381-3 0  9998
2 47612  97.4143 349.9846 0010781 192.2617 167.8357 15.18470856 96162
FLOCK 4S-48             
1 47617U 21006EJ  22293.41940715  .00005367  00000+0  26324-3 0  9993
2 47617  97.4295 350.4157 0010572 184.7123 175.4014 15.18485290 97190
FLOCK 4S-46             
1 47684U 21006EK  22293.16914352  .00015896  00000+0  77515-3 0  9993
2 47684  97.4296 350.1118 0006123 216.5843 143.4974 15.18381881 96188
FLOCK 4S-47             
1 47685U 21006EL  22293.16492351  .00017546  00000+0  85590-3 0  9990
2 47685  97.4270 349.5467 0005958 196.7063 163.3976 15.18348628 96150
FLOCK 4S-44             
1 47686U 21006EM  22293.41605211  .00006139  00000+0  30319-3 0  9995
2 47686  97.4314 350.4358 0010665 201.8894 158.1885 15.18183533 96211
FLOCK 4S-43             
1 47687U 21006EN  22293.13832839  .00004817  00000+0  23820-3 0  9993
2 47687  97.4285 349.6879 0005691 193.4882 166.6201 15.18279007 97122
FLOCK 4S-45             
1 47688U 21006EP  22293.14911952  .00011864  00000+0  58167-3 0  9991
2 47688  97.4298 349.6361 0010169 185.1393 174.9738 15.18233986 97116
FLOCK 4S-41             
1 47698U 21006ER  22293.11090746  .00008660  00000+0  42200-3 0  9999
2 47698  97.4352 350.2154 0008813 198.3010 161.7909 15.18546044 96150
FLOCK 4X-8              
1 50992U 22002J   22293.44767708  .00005580  00000+0  28244-3 0  9992
2 50992  97.4729 358.8844 0011964   4.9891 355.1460 15.17352451 42360
FLOCK 4X-44             
1 50994U 22002L   22293.19043193  .00005823  00000+0  29513-3 0  9991
2 50994  97.4775 358.6965 0011144   7.1286 353.0103 15.17293863 42326
FLOCK 4X-2              
1 50996U 22002N   22293.18866704  .00001716  00000+0  89244-4 0  9998
2 50996  97.4745 358.6656 0011574  10.7926 349.3554 15.17361773 42324
FLOCK 4X-20             
1 50997U 22002P   22293.18550886  .00006251  00000+0  31642-3 0  9997
2 50997  97.4760 358.6604 0011098   8.8412 351.3015 15.17310147 42328
FLOCK 4X-30             
1 51000U 22002S   22293.05441569  .00002643  00000+0  13551-3 0  9996
2 51000  97.4737 358.3314 0010841 359.1061   0.9144 15.17386203 42304
FLOCK 4X-22             
1 51003U 22002V   22293.18233025  .00012265  00000+0  61638-3 0  9999
2 51003  97.4747 358.6076 0011362  10.3172 349.8292 15.17351563 42326
FLOCK 4X-5              
1 51004U 22002W   22292.78470039  .00010968  00000+0  55156-3 0  9999
2 51004  97.4720 358.1188 0011424   2.8177 357.3119 15.17356451 42263
FLOCK 4X-41             
1 51005U 22002X   22293.44244686  .00001523  00000+0  79746-4 0  9990
2 51005  97.4702 358.7078 0010775 356.7244   3.3917 15.17300973 42365
FLOCK 4X-3              
1 51006U 22002Y   22293.17784837  .00009952  00000+0  50034-3 0  9990
2 51006  97.4759 358.6650 0011607   6.3443 353.7935 15.17390053 42323
FLOCK 4X-18             
1 51007U 22002Z   22292.91207087  .00008647  00000+0  43510-3 0  9990
2 51007  97.4725 358.2656 0011621   2.1417 357.9864 15.17400886 42288
FLOCK 4X-37             
1 51009U 22002AB  22293.17473840  .00007026  00000+0  35482-3 0  9992
2 51009  97.4770 358.7011 0011881   4.9303 355.2045 15.17343973 42322
FLOCK 4X-15             
1 51010U 22002AC  22293.16849930  .00008188  00000+0  41237-3 0  9995
2 51010  97.4769 358.7240 0011015  11.4008 348.7473 15.17391516 42328
FLOCK 4X-29             
1 51011U 22002AD  22293.17254638  .00006673  00000+0  33718-3 0  9994
2 51011  97.4719 358.5072 0011522 359.7869   0.3357 15.17342520 42324
FLOCK 4X-27             
1 51012U 22002AE  22293.23733102  .00007150  00000+0  36070-3 0  9995
2 51012  97.4757 358.7223 0012081   7.4879 352.6532 15.17369739 42336
FLOCK 4X-12             
1 51015U 22002AH  22293.09953757  .00007263  00000+0  36733-3 0  9993
2 51015  97.4760 358.6054 0012341   0.9105 359.1115 15.17274395 42313
FLOCK 4X-25             
1 51016U 22002AJ  22293.16989934  .00009019  00000+0  45398-3 0  9996
2 51016  97.4742 358.6104 0011864   8.9087 351.2354 15.17374216 42328
FLOCK 4X-1              
1 51017U 22002AK  22293.16342387  .00008605  00000+0  43378-3 0  9998
2 51017  97.4695 358.5423 0009576  14.7309 345.4202 15.17356403 42323
FLOCK 4X-42             
1 51018U 22002AL  22293.11336520  .00035124  00000+0  17474-2 0  9999
2 51018  97.4597 358.4295 0014504 357.8694  72.1620 15.17434843 42318
FLOCK 4X-16             
1 51020U 22002AN  22293.16133470  .00006697  00000+0  33734-3 0  9997
2 51020  97.4713 358.5035 0011751 356.6665   3.4488 15.17448770 42324
FLOCK 4X-38             
1 51023U 22002AR  22293.42438980  .00003047  00000+0  15578-3 0  9995
2 51023  97.4745 358.9558 0011889   3.6851 356.4468 15.17366916 42368
FLOCK 4X-32             
1 51024U 22002AS  22292.89543800  .00010525  00000+0  52944-3 0  9991
2 51024  97.4767 358.4516 0012171   0.8469 359.2782 15.17347681 42280
FLOCK 4X-26             
1 51026U 22002AU  22293.15568726  .00008186  00000+0  41288-3 0  9996
2 51026  97.4727 358.5621 0012012   1.3618 358.7646 15.17333471 42322
FLOCK 4X-43             
1 51027U 22002AV  22293.15714233  .00013000  00000+0  65169-3 0  9998
2 51027  97.4719 358.5444 0011810 359.1077   1.0133 15.17418238 42329
